[{"OBJECT_NAME":"STARLINK-31400","OBJECT_ID":"2024-064H","EPOCH":"2026-03-08T23:56:14.908128","MEAN_MOTION":15.27574271,"ECCENTRICITY":5.246e-5,"INCLINATION":43.0014,"RA_OF_ASC_NODE":59.764,"ARG_OF_PERICENTER":250.3044,"MEAN_ANOMALY":109.7751,"EPHEMERIS_TYPE":0,"CLASSIFICATION_TYPE":"U","NORAD_CAT_ID":59405,"ELEMENT_SET_NO":999,"REV_AT_EPOCH":10912,"BSTAR":-2.4986838e-5,"MEAN_MOTION_DOT":-9.49e-6,"MEAN_MOTION_DDOT":0},{"OBJECT_NAME":"OTTER","OBJECT_ID":"2025-009Q","EPOCH":"2026-03-09T17:21:07.902432","MEAN_MOTION":15.27809545,"ECCENTRICITY":0.00035728,"INCLINATION":97.4065,"RA_OF_ASC_NODE":151.3812,"ARG_OF_PERICENTER":310.771,"MEAN_ANOMALY":49.3219,"EPHEMERIS_TYPE":0,"CLASSIFICATION_TYPE":"U","NORAD_CAT_ID":62623,"ELEMENT_SET_NO":999,"REV_AT_EPOCH":6372,"BSTAR":0.00045151206,"MEAN_MOTION_DOT":0.00012198,"MEAN_MOTION_DDOT":0}]
